{"type": "FeatureCollection","features": [{"type": "Feature", "geometry": {"type":"Point","coordinates":[107.3406636,-6.3242266]}, "properties": {"osm_id": 13140987124, "osm_type": "nodes", "status": null, "opening_hours": null, "access": null, "toilets_disposal": null, "network": null, "toilets_handwashing": null, "operator": "Bank Central Asia", "operator_type": null, "health_facility_bed": null, "staff_count_nurses": null, "health_facility_level": null, "medical_system_western": null, "name": null, "amenity": "atm", "staff_count_doctors": null, "health_facility_type": null}},{"type": "Feature", "geometry": {"type":"Point","coordinates":[107.3014244,-6.3034413]}, "properties": {"osm_id": 13719873418, "osm_type": "nodes", "status": null, "opening_hours": null, "access": null, "toilets_disposal": null, "network": null, "toilets_handwashing": null, "operator": null, "operator_type": null, "health_facility_bed": null, "staff_count_nurses": null, "health_facility_level": null, "medical_system_western": null, "name": "Klinik PGRI Karawang", "amenity": "hospital", "staff_count_doctors": null, "health_facility_type": null}},{"type": "Feature", "geometry": {"type":"Point","coordinates":[107.3606691,-6.3673474]}, "properties": {"osm_id": 6153827567, "osm_type": "nodes", "status": null, "opening_hours": null, "access": null, "toilets_disposal": null, "network": null, "toilets_handwashing": null, "operator": null, "operator_type": null, "health_facility_bed": null, "staff_count_nurses": null, "health_facility_level": null, "medical_system_western": null, "name": "ATM Centre", "amenity": "atm", "staff_count_doctors": null, "health_facility_type": null}},{"type": "Feature", "geometry": {"type":"Point","coordinates":[107.3057349,-6.3072716]}, "properties": {"osm_id": 12107507491, "osm_type": "nodes", "status": null, "opening_hours": null, "access": null, "toilets_disposal": null, "network": null, "toilets_handwashing": null, "operator": "Bank Central Asia", "operator_type": null, "health_facility_bed": null, "staff_count_nurses": null, "health_facility_level": null, "medical_system_western": null, "name": "ATM Bank BCA 7637-Karawang", "amenity": "atm", "staff_count_doctors": null, "health_facility_type": null}},{"type": "Feature", "geometry": {"type":"Point","coordinates":[107.2908857,-6.2985311]}, "properties": {"osm_id": 13158165806, "osm_type": "nodes", "status": null, "opening_hours": null, "access": null, "toilets_disposal": null, "network": null, "toilets_handwashing": null, "operator": null, "operator_type": null, "health_facility_bed": null, "staff_count_nurses": null, "health_facility_level": null, "medical_system_western": null, "name": "Bank BJB", "amenity": "bank", "staff_count_doctors": null, "health_facility_type": null}},{"type": "Feature", "geometry": {"type":"Point","coordinates":[107.2836929,-6.2821122]}, "properties": {"osm_id": 2154033735, "osm_type": "nodes", "status": null, "opening_hours": null, "access": null, "toilets_disposal": null, "network": null, "toilets_handwashing": null, "operator": null, "operator_type": null, "health_facility_bed": null, "staff_count_nurses": null, "health_facility_level": null, "medical_system_western": null, "name": "RS Islam", "amenity": "hospital", "staff_count_doctors": null, "health_facility_type": null}},{"type": "Feature", "geometry": {"type":"Point","coordinates":[107.2792401,-6.303449]}, "properties": {"osm_id": 13161707474, "osm_type": "nodes", "status": null, "opening_hours": null, "access": null, "toilets_disposal": null, "network": null, "toilets_handwashing": null, "operator": "BCA", "operator_type": null, "health_facility_bed": null, "staff_count_nurses": null, "health_facility_level": null, "medical_system_western": null, "name": "Bank Central Asia", "amenity": "bank", "staff_count_doctors": null, "health_facility_type": null}},{"type": "Feature", "geometry": {"type":"Point","coordinates":[107.3430733,-6.3345121]}, "properties": {"osm_id": 12206420940, "osm_type": "nodes", "status": null, "opening_hours": null, "access": null, "toilets_disposal": null, "network": null, "toilets_handwashing": null, "operator": null, "operator_type": null, "health_facility_bed": null, "staff_count_nurses": null, "health_facility_level": null, "medical_system_western": null, "name": "BTN", "amenity": "bank", "staff_count_doctors": null, "health_facility_type": null}},{"type": "Feature", "geometry": {"type":"Point","coordinates":[107.3164376,-6.3151063]}, "properties": {"osm_id": 12408807728, "osm_type": "nodes", "status": null, "opening_hours": null, "access": null, "toilets_disposal": null, "network": null, "toilets_handwashing": null, "operator": null, "operator_type": null, "health_facility_bed": null, "staff_count_nurses": null, "health_facility_level": null, "medical_system_western": null, "name": "Unit Gawat Darurat Rumah Sakit Delima Asih Sisma Medika", "amenity": "hospital", "staff_count_doctors": null, "health_facility_type": null}},{"type": "Feature", "geometry": {"type":"Point","coordinates":[107.2930943,-6.3208159]}, "properties": {"osm_id": 12205286710, "osm_type": "nodes", "status": null, "opening_hours": null, "access": null, "toilets_disposal": null, "network": null, "toilets_handwashing": null, "operator": null, "operator_type": null, "health_facility_bed": null, "staff_count_nurses": null, "health_facility_level": null, "medical_system_western": null, "name": "Rumah Sakit Umum Daerah Karawang", "amenity": "hospital", "staff_count_doctors": null, "health_facility_type": null}},{"type": "Feature", "geometry": {"type":"Point","coordinates":[107.312362,-6.3225216]}, "properties": {"osm_id": 3147667424, "osm_type": "nodes", "status": null, "opening_hours": null, "access": null, "toilets_disposal": null, "network": null, "toilets_handwashing": null, "operator": null, "operator_type": null, "health_facility_bed": null, "staff_count_nurses": null, "health_facility_level": null, "medical_system_western": null, "name": "Bd Tini", "amenity": "hospital", "staff_count_doctors": null, "health_facility_type": null}},{"type": "Feature", "geometry": {"type":"Point","coordinates":[107.3038993,-6.3056449]}, "properties": {"osm_id": 2155793258, "osm_type": "nodes", "status": null, "opening_hours": null, "access": null, "toilets_disposal": null, "network": null, "toilets_handwashing": null, "operator": "BRI", "operator_type": null, "health_facility_bed": null, "staff_count_nurses": null, "health_facility_level": null, "medical_system_western": null, "name": null, "amenity": "atm", "staff_count_doctors": null, "health_facility_type": null}},{"type": "Feature", "geometry": {"type":"Point","coordinates":[107.3056347,-6.3086841]}, "properties": {"osm_id": 2155791300, "osm_type": "nodes", "status": null, "opening_hours": null, "access": null, "toilets_disposal": null, "network": null, "toilets_handwashing": null, "operator": "BRI", "operator_type": null, "health_facility_bed": null, "staff_count_nurses": null, "health_facility_level": null, "medical_system_western": null, "name": null, "amenity": "atm", "staff_count_doctors": null, "health_facility_type": null}},{"type": "Feature", "geometry": {"type":"Point","coordinates":[107.3778688,-6.352479]}, "properties": {"osm_id": 3797678658, "osm_type": "nodes", "status": null, "opening_hours": null, "access": null, "toilets_disposal": null, "network": null, "toilets_handwashing": null, "operator": "BNI", "operator_type": null, "health_facility_bed": null, "staff_count_nurses": null, "health_facility_level": null, "medical_system_western": null, "name": null, "amenity": "atm", "staff_count_doctors": null, "health_facility_type": null}},{"type": "Feature", "geometry": {"type":"Polygon","coordinates":[[[107.3038109,-6.3057409],[107.3039521,-6.3057598],[107.3039602,-6.3054612],[107.3038341,-6.3054559],[107.3038109,-6.3057409]]]}, "properties": {"osm_id": 205606745, "osm_type": "ways_poly", "status": null, "opening_hours": null, "access": null, "toilets_disposal": null, "network": null, "toilets_handwashing": null, "operator": null, "operator_type": null, "health_facility_bed": null, "staff_count_nurses": null, "health_facility_level": null, "medical_system_western": null, "name": null, "amenity": "hospital", "staff_count_doctors": null, "health_facility_type": null}},{"type": "Feature", "geometry": {"type":"Polygon","coordinates":[[[107.3770677,-6.3500745],[107.3778191,-6.3501509],[107.3778815,-6.3496642],[107.3771685,-6.3495425],[107.3770677,-6.3500745]]]}, "properties": {"osm_id": 376323079, "osm_type": "ways_poly", "status": null, "opening_hours": null, "access": null, "toilets_disposal": null, "network": null, "toilets_handwashing": null, "operator": null, "operator_type": null, "health_facility_bed": null, "staff_count_nurses": null, "health_facility_level": null, "medical_system_western": null, "name": "RS Citra Sari Husada - Intan Barokah", "amenity": "hospital", "staff_count_doctors": null, "health_facility_type": null}},{"type": "Feature", "geometry": {"type":"Polygon","coordinates":[[[107.3779448,-6.3522167],[107.3784867,-6.3522766],[107.3785145,-6.3519912],[107.3781162,-6.3519406],[107.378093,-6.352051],[107.377968,-6.3520372],[107.3779448,-6.3522167]]]}, "properties": {"osm_id": 307710799, "osm_type": "ways_poly", "status": null, "opening_hours": null, "access": null, "toilets_disposal": null, "network": null, "toilets_handwashing": null, "operator": null, "operator_type": null, "health_facility_bed": null, "staff_count_nurses": null, "health_facility_level": null, "medical_system_western": null, "name": "RS Fikri Medika", "amenity": "hospital", "staff_count_doctors": null, "health_facility_type": null}},{"type": "Feature", "geometry": {"type":"Polygon","coordinates":[[[107.3020318,-6.3051059],[107.3021272,-6.3051507],[107.3022117,-6.3049727],[107.3021163,-6.304928],[107.3020318,-6.3051059]]]}, "properties": {"osm_id": 781171640, "osm_type": "ways_poly", "status": null, "opening_hours": null, "access": null, "toilets_disposal": null, "network": null, "toilets_handwashing": null, "operator": null, "operator_type": null, "health_facility_bed": null, "staff_count_nurses": null, "health_facility_level": null, "medical_system_western": null, "name": "RSIA Dr. Djoko Pramono", "amenity": "hospital", "staff_count_doctors": null, "health_facility_type": null}},{"type": "Feature", "geometry": {"type":"Polygon","coordinates":[[[107.2915749,-6.3026672],[107.2915904,-6.3033077],[107.2916021,-6.3035811],[107.2916188,-6.3036111],[107.2916488,-6.3039694],[107.2921866,-6.3039639],[107.2921965,-6.3039751],[107.2922065,-6.3039941],[107.2922268,-6.3040152],[107.2923098,-6.3040108],[107.2923576,-6.3040073],[107.2924224,-6.3040006],[107.2925754,-6.3040028],[107.2925271,-6.3035336],[107.2924547,-6.3025972],[107.2916836,-6.3026172],[107.2916326,-6.3026198],[107.2915977,-6.3026345],[107.2915749,-6.3026672]]]}, "properties": {"osm_id": 933313099, "osm_type": "ways_poly", "status": null, "opening_hours": null, "access": null, "toilets_disposal": null, "network": null, "toilets_handwashing": null, "operator": "Ginanren", "operator_type": "private_non_profit", "health_facility_bed": null, "staff_count_nurses": null, "health_facility_level": null, "medical_system_western": null, "name": "RS Bayukarta", "amenity": "hospital", "staff_count_doctors": null, "health_facility_type": null}},{"type": "Feature", "geometry": {"type":"Polygon","coordinates":[[[107.306452,-6.3071286],[107.3064551,-6.3071947],[107.3064882,-6.3071924],[107.3064918,-6.3072601],[107.3066889,-6.30725],[107.3067104,-6.3072222],[107.3068322,-6.307215],[107.3068204,-6.3070191],[107.3068005,-6.3070203],[107.306799,-6.3069943],[107.3066159,-6.3070046],[107.3066175,-6.307033],[107.3065547,-6.3070364],[107.3065559,-6.3070593],[107.3064815,-6.3070631],[107.3064847,-6.3071247],[107.306452,-6.3071286]]]}, "properties": {"osm_id": 1307388676, "osm_type": "ways_poly", "status": null, "opening_hours": "Mo-Fr 08:00-16:00", "access": null, "toilets_disposal": null, "network": null, "toilets_handwashing": null, "operator": null, "operator_type": null, "health_facility_bed": null, "staff_count_nurses": null, "health_facility_level": null, "medical_system_western": null, "name": "Bank Mandiri", "amenity": "bank", "staff_count_doctors": null, "health_facility_type": null}},{"type": "Feature", "geometry": {"type":"Polygon","coordinates":[[[107.305883,-6.307572],[107.3059485,-6.3076954],[107.3059633,-6.3076875],[107.306043,-6.3076451],[107.306006,-6.3075757],[107.3060616,-6.3075419],[107.3060276,-6.3074744],[107.3059685,-6.3075159],[107.3059013,-6.3075611],[107.305883,-6.307572]]]}, "properties": {"osm_id": 1307398587, "osm_type": "ways_poly", "status": null, "opening_hours": "Mo-Fr 08:00-16:00", "access": null, "toilets_disposal": null, "network": null, "toilets_handwashing": null, "operator": null, "operator_type": null, "health_facility_bed": null, "staff_count_nurses": null, "health_facility_level": null, "medical_system_western": null, "name": "Bank Syariah Indonesia", "amenity": "bank", "staff_count_doctors": null, "health_facility_type": null}},{"type": "Feature", "geometry": {"type":"Polygon","coordinates":[[[107.3056537,-6.3072363],[107.3056741,-6.3072678],[107.3056611,-6.3072761],[107.3057216,-6.3073694],[107.3057558,-6.3073475],[107.305778,-6.3073818],[107.3057375,-6.3074077],[107.3058322,-6.3075538],[107.3058765,-6.3075254],[107.3059013,-6.3075611],[107.3059685,-6.3075159],[107.3059512,-6.3074841],[107.3059958,-6.3074556],[107.3059598,-6.3073999],[107.3059906,-6.3073813],[107.3059501,-6.3073257],[107.3059229,-6.307343],[107.3059028,-6.307312],[107.3058566,-6.3073416],[107.3058319,-6.3073034],[107.3057994,-6.3073242],[107.3057164,-6.3071961],[107.3056537,-6.3072363]]]}, "properties": {"osm_id": 1307398588, "osm_type": "ways_poly", "status": null, "opening_hours": null, "access": null, "toilets_disposal": null, "network": null, "toilets_handwashing": null, "operator": "Bank Central Asia", "operator_type": null, "health_facility_bed": null, "staff_count_nurses": null, "health_facility_level": null, "medical_system_western": null, "name": "Bank Central Asia", "amenity": "bank", "staff_count_doctors": null, "health_facility_type": null}},{"type": "Feature", "geometry": {"type":"Polygon","coordinates":[[[107.3025968,-6.3083353],[107.3026081,-6.3084506],[107.3027804,-6.3084394],[107.3027996,-6.3086812],[107.3030313,-6.3086519],[107.3029989,-6.3083767],[107.3025968,-6.3083353]]]}, "properties": {"osm_id": 1307640338, "osm_type": "ways_poly", "status": null, "opening_hours": null, "access": null, "toilets_disposal": null, "network": null, "toilets_handwashing": null, "operator": null, "operator_type": null, "health_facility_bed": null, "staff_count_nurses": null, "health_facility_level": null, "medical_system_western": null, "name": "BNI", "amenity": "bank", "staff_count_doctors": null, "health_facility_type": null}},{"type": "Feature", "geometry": {"type":"Polygon","coordinates":[[[107.3119299,-6.3091061],[107.3120173,-6.3091505],[107.3120754,-6.3091727],[107.3122684,-6.3085712],[107.3123168,-6.3084203],[107.3128546,-6.308595],[107.3130509,-6.3079609],[107.3128185,-6.3078912],[107.3122384,-6.3078688],[107.3121706,-6.3081625],[107.3120335,-6.3081106],[107.3119692,-6.3083279],[107.3121431,-6.3083947],[107.3120588,-6.3086468],[107.3119299,-6.3091061]]]}, "properties": {"osm_id": 1307460675, "osm_type": "ways_poly", "status": null, "opening_hours": "24/7", "access": null, "toilets_disposal": null, "network": null, "toilets_handwashing": null, "operator": "Hermina Hospital", "operator_type": null, "health_facility_bed": null, "staff_count_nurses": null, "health_facility_level": null, "medical_system_western": null, "name": "Rumah Sakit Hermina Karawang", "amenity": "hospital", "staff_count_doctors": null, "health_facility_type": null}},{"type": "Feature", "geometry": {"type":"Polygon","coordinates":[[[107.2922221,-6.3203538],[107.2922669,-6.3208136],[107.2922655,-6.3210972],[107.2922632,-6.3218034],[107.2922731,-6.3218637],[107.2941308,-6.3218084],[107.2943081,-6.3209089],[107.2941123,-6.320851],[107.2942684,-6.3203013],[107.2941096,-6.3202829],[107.2942181,-6.3199357],[107.2938212,-6.319799],[107.2938503,-6.3196648],[107.2929955,-6.3194597],[107.2924451,-6.3192019],[107.2923813,-6.3193383],[107.2923222,-6.3194989],[107.2922257,-6.3198023],[107.2922221,-6.3198838],[107.2922283,-6.3199938],[107.2922221,-6.3203538]]]}, "properties": {"osm_id": 1341469614, "osm_type": "ways_poly", "status": null, "opening_hours": null, "access": null, "toilets_disposal": null, "network": null, "toilets_handwashing": null, "operator": null, "operator_type": null, "health_facility_bed": null, "staff_count_nurses": null, "health_facility_level": null, "medical_system_western": null, "name": "Rumah Sakit Umum Daerah Karawang", "amenity": "hospital", "staff_count_doctors": null, "health_facility_type": null}},{"type": "Feature", "geometry": {"type":"Polygon","coordinates":[[[107.2963576,-6.3307915],[107.2968483,-6.3312563],[107.2976352,-6.330421],[107.297149,-6.3299509],[107.2966509,-6.3304582],[107.2963576,-6.3307915]]]}, "properties": {"osm_id": 1213594972, "osm_type": "ways_poly", "status": null, "opening_hours": "24/7", "access": null, "toilets_disposal": null, "network": null, "toilets_handwashing": null, "operator": null, "operator_type": null, "health_facility_bed": null, "staff_count_nurses": null, "health_facility_level": null, "medical_system_western": null, "name": "Primaya Hospital Karawang", "amenity": "hospital", "staff_count_doctors": null, "health_facility_type": null}},{"type": "Feature", "geometry": {"type":"Polygon","coordinates":[[[107.3256379,-6.3027552],[107.3256581,-6.3031324],[107.3261341,-6.3031364],[107.3261046,-6.3037496],[107.3266639,-6.3036589],[107.3266572,-6.3031257],[107.3269334,-6.3030804],[107.3268798,-6.3025632],[107.3268074,-6.3022993],[107.3265821,-6.30195],[107.3264721,-6.302006],[107.3263139,-6.3018114],[107.3260725,-6.301982],[107.3262173,-6.302254],[107.3260027,-6.3024219],[107.3261046,-6.3026965],[107.3256379,-6.3027552]]]}, "properties": {"osm_id": 782993726, "osm_type": "ways_poly", "status": null, "opening_hours": null, "access": null, "toilets_disposal": null, "network": null, "toilets_handwashing": null, "operator": null, "operator_type": "private", "health_facility_bed": null, "staff_count_nurses": null, "health_facility_level": null, "medical_system_western": null, "name": "RS Lira Medika", "amenity": "hospital", "staff_count_doctors": null, "health_facility_type": null}},{"type": "Feature", "geometry": {"type":"Polygon","coordinates":[[[107.315752,-6.3148318],[107.3161313,-6.3149512],[107.3161153,-6.3150229],[107.3161791,-6.315035],[107.3161635,-6.3151295],[107.3161344,-6.3152397],[107.3162411,-6.3152721],[107.3163214,-6.3153015],[107.3164615,-6.3153528],[107.3164702,-6.315356],[107.3165427,-6.3152474],[107.3167315,-6.3149592],[107.3167487,-6.3149346],[107.3166491,-6.3148859],[107.31623,-6.3147351],[107.3160379,-6.31468],[107.3159534,-6.3146558],[107.315958,-6.3146324],[107.3158189,-6.3145863],[107.3157851,-6.3147104],[107.315752,-6.3148318]]]}, "properties": {"osm_id": 1341468601, "osm_type": "ways_poly", "status": null, "opening_hours": null, "access": null, "toilets_disposal": null, "network": null, "toilets_handwashing": null, "operator": null, "operator_type": null, "health_facility_bed": null, "staff_count_nurses": null, "health_facility_level": null, "medical_system_western": null, "name": "Rumah Sakit Delima Asih Sisma Medika", "amenity": "hospital", "staff_count_doctors": null, "health_facility_type": null}},{"type": "Feature", "geometry": {"type":"Polygon","coordinates":[[[107.2912905,-6.3224158],[107.291312,-6.3227404],[107.291919,-6.3227007],[107.2918975,-6.3223761],[107.2912905,-6.3224158]]]}, "properties": {"osm_id": 1451703252, "osm_type": "ways_poly", "status": null, "opening_hours": null, "access": null, "toilets_disposal": null, "network": null, "toilets_handwashing": null, "operator": null, "operator_type": null, "health_facility_bed": null, "staff_count_nurses": null, "health_facility_level": null, "medical_system_western": null, "name": "Rumah Sakit Permata Keluarga Karawang", "amenity": "hospital", "staff_count_doctors": null, "health_facility_type": null}},{"type": "Feature", "geometry": {"type":"Polygon","coordinates":[[[107.2976072,-6.3046314],[107.2978896,-6.3048155],[107.2978233,-6.3049157],[107.2978188,-6.3049228],[107.2977967,-6.3049084],[107.2977479,-6.3049823],[107.2978414,-6.3050432],[107.2978866,-6.3049747],[107.2981379,-6.3051385],[107.2982881,-6.3049108],[107.2981967,-6.3048512],[107.2983488,-6.3046208],[107.2980712,-6.3044398],[107.2978351,-6.304286],[107.2977943,-6.3043479],[107.2976072,-6.3046314]]]}, "properties": {"osm_id": 784096847, "osm_type": "ways_poly", "status": null, "opening_hours": null, "access": null, "toilets_disposal": null, "network": null, "toilets_handwashing": null, "operator": null, "operator_type": "private", "health_facility_bed": null, "staff_count_nurses": null, "health_facility_level": null, "medical_system_western": null, "name": "RS Dewi Sri Karawang", "amenity": "hospital", "staff_count_doctors": null, "health_facility_type": null}},{"type": "Feature", "geometry": {"type":"Polygon","coordinates":[[[107.2778329,-6.3050959],[107.2782084,-6.3052345],[107.2783372,-6.304784],[107.2790185,-6.3049573],[107.2791123,-6.3045974],[107.2790292,-6.304576],[107.2790242,-6.3044877],[107.2781011,-6.3043988],[107.2778329,-6.3050959]]]}, "properties": {"osm_id": 783796875, "osm_type": "ways_poly", "status": null, "opening_hours": null, "access": null, "toilets_disposal": null, "network": null, "toilets_handwashing": null, "operator": null, "operator_type": "private", "health_facility_bed": null, "staff_count_nurses": null, "health_facility_level": null, "medical_system_western": null, "name": "RS Mandaya", "amenity": "hospital", "staff_count_doctors": null, "health_facility_type": null}},{"type": "Feature", "geometry": {"type":"Polygon","coordinates":[[[107.2940136,-6.3153928],[107.2941743,-6.3157445],[107.2943479,-6.3156662],[107.2941872,-6.3153145],[107.2940136,-6.3153928]]]}, "properties": {"osm_id": 1451703253, "osm_type": "ways_poly", "status": null, "opening_hours": null, "access": null, "toilets_disposal": null, "network": null, "toilets_handwashing": null, "operator": null, "operator_type": null, "health_facility_bed": null, "staff_count_nurses": null, "health_facility_level": null, "medical_system_western": null, "name": "RS Mitra Family Karawang", "amenity": "hospital", "staff_count_doctors": null, "health_facility_type": null}}]}